<?xml version="1.0" encoding="UTF-8"?>
<kml xmlns="http://www.opengis.net/kml/2.2" xmlns:xsi="http://www.w3.org/2001/XMLSchema-instance" xsi:schemaLocation="http://www.opengis.net/kml/2.2 http://schemas.opengis.net/kml/2.2.0/ogckml22.xsd">
  <Document>
    <name>sentier-circulaire-schynige-platte-vue-exceptionnelle-sur-la-triple-montagne</name>
    <description><![CDATA[Generated by AllTrails https://www.alltrails.com/]]></description>
    <Style id="gpsiesStyle">
      <IconStyle>
        <scale>0.5</scale>
        <Icon>
          <href>https://www.gpsies.com/images/milestone.png</href>
        </Icon>
      </IconStyle>
      <LineStyle>
        <colorMode>random</colorMode>
        <width>5</width>
      </LineStyle>
    </Style>
    <Style id="flag_n">
      <IconStyle>
        <scale>0.8</scale>
        <Icon>
          <href>https://www.gpsies.com/images/flag.png</href>
        </Icon>
      </IconStyle>
      <LabelStyle>
        <scale>0</scale>
      </LabelStyle>
      <BalloonStyle>
        <text>$[description]</text>
      </BalloonStyle>
    </Style>
    <Style id="flag_h">
      <IconStyle>
        <scale>0.8</scale>
        <Icon>
          <href>https://www.gpsies.com/images/flag.png</href>
        </Icon>
      </IconStyle>
      <LabelStyle>
        <scale>1</scale>
      </LabelStyle>
      <BalloonStyle>
        <text>$[description]</text>
      </BalloonStyle>
    </Style>
    <StyleMap id="flag">
      <Pair>
        <key>normal</key>
        <styleUrl>#flag_n</styleUrl>
      </Pair>
      <Pair>
        <key>highlight</key>
        <styleUrl>#flag_h</styleUrl>
      </Pair>
    </StyleMap>
    <Placemark>
      <name>sentier-circulaire-schynige-platte-vue-exceptionnelle-sur-la-triple-montagne</name>
      <visibility>1</visibility>
      <open>1</open>
      <Snippet maxLines="0" />
      <description><![CDATA[Generated by AllTrails https://www.alltrails.com/]]></description>
      <styleUrl>#gpsiesStyle</styleUrl>
      <MultiGeometry>
        <LineString>
          <extrude>true</extrude>
          <tessellate>true</tessellate>
          <coordinates>7.910770000,46.65193000,1987.0000
7.910760000,46.65192000,1987.0000
7.910720000,46.65186000,1985.0000
7.910720000,46.65177000,1980.0000
7.910730000,46.65169000,1975.0000
7.910770000,46.65169000,1973.0000
7.910820000,46.65171000,1972.0000
7.910880000,46.65177000,1971.0000
7.910970000,46.65187000,1970.0000
7.911100000,46.65198000,1966.0000
7.911220000,46.65205000,1966.0000
7.911260000,46.65208000,1966.0000
7.911460000,46.65223000,1966.0000
7.911640000,46.65235000,1957.0000
7.911880000,46.65250000,1952.0000
7.912010000,46.65260000,1951.0000
7.912100000,46.65264000,1950.0000
7.912180000,46.65268000,1949.0000
7.912250000,46.65273000,1949.0000
7.912360000,46.65282000,1947.0000
7.912480000,46.65291000,1945.0000
7.912580000,46.65297000,1942.0000
7.912630000,46.65303000,1942.0000
7.912690000,46.65308000,1940.0000
7.912720000,46.65314000,1939.0000
7.912740000,46.65320000,1939.0000
7.912760000,46.65327000,1938.0000
7.912790000,46.65333000,1937.0000
7.912860000,46.65338000,1935.0000
7.912990000,46.65345000,1932.0000
7.913130000,46.65351000,1929.0000
7.913220000,46.65355000,1929.0000
7.913330000,46.65357000,1928.0000
7.913440000,46.65359000,1929.0000
7.913550000,46.65360000,1929.0000
7.913620000,46.65362000,1929.0000
7.913690000,46.65366000,1928.0000
7.913800000,46.65375000,1925.0000
7.913960000,46.65385000,1922.0000
7.914070000,46.65392000,1920.0000
7.914180000,46.65398000,1918.0000
7.914300000,46.65405000,1917.0000
7.914390000,46.65409000,1915.0000
7.914510000,46.65415000,1914.0000
7.914580000,46.65421000,1915.0000
7.914650000,46.65424000,1915.0000
7.914690000,46.65427000,1915.0000
7.914710000,46.65431000,1916.0000
7.914730000,46.65438000,1917.0000
7.914770000,46.65442000,1917.0000
7.914820000,46.65445000,1918.0000
7.914900000,46.65448000,1918.0000
7.914970000,46.65449000,1919.0000
7.915030000,46.65450000,1919.0000
7.915180000,46.65454000,1919.0000
7.915330000,46.65458000,1919.0000
7.915440000,46.65461000,1918.0000
7.915480000,46.65464000,1918.0000
7.915550000,46.65470000,1918.0000
7.915590000,46.65474000,1918.0000
7.915700000,46.65480000,1918.0000
7.915780000,46.65489000,1918.0000
7.915860000,46.65499000,1918.0000
7.915950000,46.65511000,1919.0000
7.916020000,46.65520000,1919.0000
7.916070000,46.65528000,1920.0000
7.916080000,46.65531000,1920.0000
7.916130000,46.65535000,1920.0000
7.916160000,46.65538000,1921.0000
7.916230000,46.65543000,1922.0000
7.916250000,46.65545000,1922.0000
7.916240000,46.65551000,1923.0000
7.916230000,46.65556000,1924.0000
7.916250000,46.65559000,1924.0000
7.916300000,46.65566000,1925.0000
7.916320000,46.65572000,1925.0000
7.916320000,46.65579000,1925.0000
7.916290000,46.65585000,1925.0000
7.916270000,46.65588000,1925.0000
7.916250000,46.65591000,1925.0000
7.916250000,46.65594000,1925.0000
7.916260000,46.65597000,1925.0000
7.916300000,46.65604000,1926.0000
7.916360000,46.65617000,1928.0000
7.916420000,46.65623000,1928.0000
7.916440000,46.65628000,1928.0000
7.916470000,46.65632000,1929.0000
7.916550000,46.65638000,1930.0000
7.916740000,46.65649000,1930.0000
7.916870000,46.65658000,1929.0000
7.916900000,46.65662000,1929.0000
7.916960000,46.65665000,1929.0000
7.917060000,46.65672000,1929.0000
7.917140000,46.65679000,1929.0000
7.917220000,46.65684000,1930.0000
7.917250000,46.65688000,1930.0000
7.917280000,46.65691000,1930.0000
7.917330000,46.65693000,1930.0000
7.917360000,46.65699000,1930.0000
7.917410000,46.65705000,1931.0000
7.917470000,46.65708000,1931.0000
7.917510000,46.65710000,1932.0000
7.917570000,46.65709000,1932.0000
7.917630000,46.65708000,1933.0000
7.917710000,46.65708000,1933.0000
7.917800000,46.65707000,1934.0000
7.917940000,46.65705000,1935.0000
7.918120000,46.65702000,1936.0000
7.918190000,46.65703000,1937.0000
7.918260000,46.65702000,1937.0000
7.918360000,46.65703000,1937.0000
7.918430000,46.65705000,1938.0000
7.918480000,46.65708000,1938.0000
7.918540000,46.65714000,1938.0000
7.918570000,46.65720000,1938.0000
7.918610000,46.65724000,1939.0000
7.918610000,46.65728000,1939.0000
7.918630000,46.65732000,1939.0000
7.918650000,46.65733000,1939.0000
7.918730000,46.65735000,1939.0000
7.918810000,46.65735000,1940.0000
7.918880000,46.65735000,1940.0000
7.918920000,46.65735000,1941.0000
7.918980000,46.65737000,1941.0000
7.919030000,46.65741000,1941.0000
7.919070000,46.65745000,1941.0000
7.919130000,46.65748000,1941.0000
7.919190000,46.65750000,1940.0000
7.919250000,46.65754000,1939.0000
7.919340000,46.65760000,1937.0000
7.919400000,46.65766000,1937.0000
7.919430000,46.65771000,1936.0000
7.919440000,46.65776000,1936.0000
7.919460000,46.65782000,1937.0000
7.919520000,46.65786000,1937.0000
7.919560000,46.65789000,1938.0000
7.919590000,46.65794000,1938.0000
7.919600000,46.65799000,1939.0000
7.919640000,46.65803000,1940.0000
7.919680000,46.65807000,1940.0000
7.919680000,46.65810000,1941.0000
7.919670000,46.65812000,1941.0000
7.919650000,46.65818000,1943.0000
7.919630000,46.65823000,1944.0000
7.919630000,46.65826000,1944.0000
7.919610000,46.65831000,1946.0000
7.919600000,46.65834000,1947.0000
7.919600000,46.65838000,1947.0000
7.919670000,46.65844000,1946.0000
7.919770000,46.65851000,1943.0000
7.919840000,46.65856000,1942.0000
7.919900000,46.65859000,1940.0000
7.919960000,46.65863000,1939.0000
7.920000000,46.65870000,1939.0000
7.920070000,46.65880000,1937.0000
7.920140000,46.65889000,1936.0000
7.920230000,46.65899000,1936.0000
7.920330000,46.65908000,1935.0000
7.920420000,46.65916000,1935.0000
7.920450000,46.65919000,1935.0000
7.920540000,46.65926000,1936.0000
7.920620000,46.65932000,1937.0000
7.920680000,46.65938000,1938.0000
7.920730000,46.65945000,1940.0000
7.920830000,46.65952000,1941.0000
7.920860000,46.65957000,1942.0000
7.920950000,46.65963000,1942.0000
7.921020000,46.65966000,1941.0000
7.921060000,46.65970000,1941.0000
7.921140000,46.65973000,1940.0000
7.921220000,46.65977000,1939.0000
7.921310000,46.65979000,1937.0000
7.921380000,46.65982000,1936.0000
7.921450000,46.65985000,1935.0000
7.921550000,46.65993000,1936.0000
7.921620000,46.65996000,1936.0000
7.921690000,46.66001000,1937.0000
7.921760000,46.66009000,1939.0000
7.921780000,46.66014000,1941.0000
7.921790000,46.66020000,1943.0000
7.921810000,46.66025000,1945.0000
7.921850000,46.66029000,1945.0000
7.921910000,46.66036000,1944.0000
7.921960000,46.66042000,1944.0000
7.922040000,46.66046000,1943.0000
7.922130000,46.66048000,1942.0000
7.922170000,46.66049000,1941.0000
7.922200000,46.66054000,1942.0000
7.922200000,46.66058000,1943.0000
7.922260000,46.66064000,1944.0000
7.922360000,46.66072000,1946.0000
7.922380000,46.66081000,1949.0000
7.922410000,46.66086000,1950.0000
7.922420000,46.66094000,1952.0000
7.922430000,46.66103000,1954.0000
7.922470000,46.66110000,1955.0000
7.922540000,46.66115000,1954.0000
7.922550000,46.66118000,1953.0000
7.922650000,46.66125000,1951.0000
7.922690000,46.66130000,1950.0000
7.922730000,46.66136000,1949.0000
7.922770000,46.66140000,1948.0000
7.922840000,46.66144000,1947.0000
7.922870000,46.66148000,1947.0000
7.922880000,46.66152000,1948.0000
7.922930000,46.66160000,1949.0000
7.923020000,46.66169000,1948.0000
7.923130000,46.66179000,1947.0000
7.923160000,46.66181000,1947.0000
7.923250000,46.66189000,1946.0000
7.923320000,46.66194000,1946.0000
7.923440000,46.66194000,1944.0000
7.923520000,46.66194000,1942.0000
7.923560000,46.66196000,1942.0000
7.923600000,46.66200000,1942.0000
7.923630000,46.66207000,1943.0000
7.923640000,46.66211000,1943.0000
7.923630000,46.66216000,1944.0000
7.923630000,46.66220000,1945.0000
7.923640000,46.66224000,1946.0000
7.923650000,46.66229000,1947.0000
7.923670000,46.66237000,1950.0000
7.923700000,46.66244000,1951.0000
7.923700000,46.66248000,1953.0000
7.923780000,46.66257000,1952.0000
7.923830000,46.66265000,1953.0000
7.923890000,46.66270000,1953.0000
7.923960000,46.66277000,1953.0000
7.924040000,46.66285000,1953.0000
7.924070000,46.66289000,1954.0000
7.924180000,46.66296000,1954.0000
7.924320000,46.66303000,1952.0000
7.924420000,46.66308000,1951.0000
7.924530000,46.66314000,1950.0000
7.924610000,46.66319000,1950.0000
7.924720000,46.66322000,1948.0000
7.924860000,46.66327000,1946.0000
7.924970000,46.66333000,1946.0000
7.924980000,46.66336000,1947.0000
7.925040000,46.66338000,1946.0000
7.925090000,46.66341000,1945.0000
7.925160000,46.66348000,1946.0000
7.925200000,46.66356000,1949.0000
7.925250000,46.66364000,1952.0000
7.925320000,46.66368000,1951.0000
7.925340000,46.66372000,1952.0000
7.925380000,46.66378000,1954.0000
7.925440000,46.66381000,1954.0000
7.925480000,46.66383000,1953.0000
7.925560000,46.66390000,1955.0000
7.925590000,46.66395000,1955.0000
7.925670000,46.66400000,1952.0000
7.925760000,46.66408000,1951.0000
7.925810000,46.66413000,1951.0000
7.925860000,46.66421000,1952.0000
7.925910000,46.66431000,1953.0000
7.925950000,46.66437000,1954.0000
7.926000000,46.66442000,1954.0000
7.926090000,46.66446000,1952.0000
7.926200000,46.66453000,1954.0000
7.926280000,46.66461000,1957.0000
7.926350000,46.66466000,1957.0000
7.926430000,46.66470000,1957.0000
7.926490000,46.66477000,1959.0000
7.926540000,46.66482000,1961.0000
7.926640000,46.66488000,1961.0000
7.926750000,46.66494000,1960.0000
7.926810000,46.66500000,1960.0000
7.926870000,46.66508000,1963.0000
7.926980000,46.66516000,1965.0000
7.927130000,46.66527000,1965.0000
7.927180000,46.66530000,1965.0000
7.927220000,46.66534000,1966.0000
7.927320000,46.66538000,1966.0000
7.927420000,46.66541000,1964.0000
7.927500000,46.66548000,1965.0000
7.927590000,46.66552000,1964.0000
7.927670000,46.66558000,1965.0000
7.927760000,46.66566000,1967.0000
7.927850000,46.66569000,1966.0000
7.927920000,46.66573000,1967.0000
7.928010000,46.66579000,1968.0000
7.928120000,46.66584000,1968.0000
7.928190000,46.66588000,1969.0000
7.928240000,46.66595000,1971.0000
7.928350000,46.66603000,1973.0000
7.928440000,46.66613000,1977.0000
7.928480000,46.66619000,1979.0000
7.928530000,46.66623000,1981.0000
7.928580000,46.66628000,1983.0000
7.928640000,46.66634000,1985.0000
7.928590000,46.66634000,1985.0000
7.928520000,46.66631000,1984.0000
7.928360000,46.66629000,1983.0000
7.928270000,46.66628000,1982.0000
7.928180000,46.66626000,1982.0000
7.928140000,46.66624000,1981.0000
7.928070000,46.66622000,1981.0000
7.927900000,46.66617000,1981.0000
7.927810000,46.66615000,1981.0000
7.927720000,46.66612000,1983.0000
7.927620000,46.66607000,1984.0000
7.927540000,46.66600000,1985.0000
7.927500000,46.66596000,1985.0000
7.927380000,46.66593000,1987.0000
7.927230000,46.66586000,1993.0000
7.927040000,46.66577000,1992.0000
7.926900000,46.66568000,1991.0000
7.926840000,46.66564000,1990.0000
7.926730000,46.66560000,1990.0000
7.926630000,46.66558000,1989.0000
7.926590000,46.66557000,1988.0000
7.926570000,46.66555000,1987.0000
7.926550000,46.66551000,1986.0000
7.926520000,46.66548000,1985.0000
7.926440000,46.66543000,1984.0000
7.926370000,46.66537000,1983.0000
7.926330000,46.66534000,1983.0000
7.926280000,46.66533000,1981.0000
7.926230000,46.66534000,1979.0000
7.926150000,46.66536000,1976.0000
7.926090000,46.66537000,1972.0000
7.926060000,46.66538000,1971.0000
7.926040000,46.66537000,1970.0000
7.925980000,46.66535000,1969.0000
7.925880000,46.66529000,1970.0000
7.925810000,46.66526000,1969.0000
7.925740000,46.66525000,1965.0000
7.925690000,46.66522000,1964.0000
7.925660000,46.66519000,1964.0000
7.925620000,46.66519000,1962.0000
7.925570000,46.66512000,1964.0000
7.925520000,46.66504000,1968.0000
7.925450000,46.66496000,1970.0000
7.925400000,46.66490000,1970.0000
7.925290000,46.66484000,1970.0000
7.925180000,46.66477000,1971.0000
7.925100000,46.66470000,1973.0000
7.925010000,46.66464000,1973.0000
7.924910000,46.66454000,1973.0000
7.924840000,46.66450000,1972.0000
7.924780000,46.66449000,1972.0000
7.924690000,46.66448000,1971.0000
7.924670000,46.66446000,1971.0000
7.924650000,46.66440000,1972.0000
7.924660000,46.66435000,1972.0000
7.924620000,46.66429000,1973.0000
7.924580000,46.66422000,1973.0000
7.924570000,46.66420000,1973.0000
7.924520000,46.66417000,1973.0000
7.924430000,46.66414000,1972.0000
7.924370000,46.66412000,1972.0000
7.924300000,46.66410000,1972.0000
7.924260000,46.66407000,1972.0000
7.924240000,46.66403000,1973.0000
7.924180000,46.66398000,1974.0000
7.924120000,46.66391000,1975.0000
7.924080000,46.66386000,1975.0000
7.924070000,46.66383000,1975.0000
7.924030000,46.66381000,1975.0000
7.923950000,46.66382000,1975.0000
7.923840000,46.66382000,1974.0000
7.923770000,46.66381000,1973.0000
7.923670000,46.66378000,1971.0000
7.923520000,46.66372000,1966.0000
7.923470000,46.66371000,1965.0000
7.923450000,46.66370000,1964.0000
7.923370000,46.66368000,1961.0000
7.923180000,46.66360000,1958.0000
7.923000000,46.66351000,1956.0000
7.922870000,46.66344000,1956.0000
7.922840000,46.66341000,1957.0000
7.922830000,46.66338000,1959.0000
7.922830000,46.66334000,1961.0000
7.922830000,46.66331000,1962.0000
7.922810000,46.66328000,1962.0000
7.922750000,46.66323000,1962.0000
7.922710000,46.66321000,1962.0000
7.922600000,46.66320000,1961.0000
7.922540000,46.66315000,1961.0000
7.922460000,46.66307000,1962.0000
7.922400000,46.66302000,1963.0000
7.922370000,46.66300000,1963.0000
7.922350000,46.66301000,1963.0000
7.922320000,46.66304000,1963.0000
7.922280000,46.66308000,1962.0000
7.922180000,46.66308000,1962.0000
7.922130000,46.66306000,1961.0000
7.922080000,46.66303000,1961.0000
7.922050000,46.66302000,1960.0000
7.922020000,46.66303000,1959.0000
7.921980000,46.66306000,1958.0000
7.921900000,46.66305000,1957.0000
7.921860000,46.66306000,1956.0000
7.921780000,46.66308000,1953.0000
7.921690000,46.66308000,1951.0000
7.921600000,46.66307000,1948.0000
7.921520000,46.66305000,1946.0000
7.921360000,46.66301000,1940.0000
7.921240000,46.66298000,1937.0000
7.921060000,46.66294000,1932.0000
7.920950000,46.66289000,1932.0000
7.920810000,46.66282000,1934.0000
7.920700000,46.66275000,1935.0000
7.920580000,46.66267000,1935.0000
7.920500000,46.66261000,1936.0000
7.920440000,46.66254000,1937.0000
7.920370000,46.66245000,1938.0000
7.920280000,46.66236000,1937.0000
7.920160000,46.66229000,1935.0000
7.920030000,46.66222000,1935.0000
7.919860000,46.66213000,1928.0000
7.919780000,46.66207000,1927.0000
7.919690000,46.66203000,1927.0000
7.919590000,46.66196000,1928.0000
7.919490000,46.66190000,1927.0000
7.919390000,46.66185000,1926.0000
7.919260000,46.66180000,1925.0000
7.919130000,46.66175000,1925.0000
7.919030000,46.66172000,1924.0000
7.918950000,46.66171000,1922.0000
7.918900000,46.66166000,1923.0000
7.918790000,46.66162000,1920.0000
7.918700000,46.66158000,1919.0000
7.918530000,46.66149000,1917.0000
7.918370000,46.66144000,1916.0000
7.918280000,46.66139000,1919.0000
7.918220000,46.66137000,1918.0000
7.918160000,46.66136000,1918.0000
7.917990000,46.66129000,1918.0000
7.917810000,46.66121000,1921.0000
7.917710000,46.66114000,1923.0000
7.917630000,46.66111000,1923.0000
7.917570000,46.66107000,1923.0000
7.917510000,46.66106000,1923.0000
7.917430000,46.66102000,1921.0000
7.917390000,46.66098000,1920.0000
7.917340000,46.66095000,1919.0000
7.917300000,46.66092000,1919.0000
7.917220000,46.66089000,1918.0000
7.917270000,46.66094000,1918.0000
7.917270000,46.66097000,1917.0000
7.917240000,46.66096000,1917.0000
7.917190000,46.66094000,1917.0000
7.917100000,46.66092000,1918.0000
7.916950000,46.66088000,1920.0000
7.916800000,46.66085000,1918.0000
7.916730000,46.66081000,1921.0000
7.916650000,46.66078000,1921.0000
7.916570000,46.66072000,1921.0000
7.916510000,46.66068000,1921.0000
7.916440000,46.66064000,1921.0000
7.916380000,46.66056000,1926.0000
7.916310000,46.66049000,1929.0000
7.916260000,46.66042000,1934.0000
7.916240000,46.66034000,1940.0000
7.916190000,46.66027000,1946.0000
7.916160000,46.66020000,1950.0000
7.916120000,46.66014000,1954.0000
7.916110000,46.66008000,1957.0000
7.916090000,46.66002000,1960.0000
7.916030000,46.65993000,1963.0000
7.915990000,46.65985000,1965.0000
7.915900000,46.65972000,1972.0000
7.915850000,46.65967000,1974.0000
7.915780000,46.65958000,1976.0000
7.915710000,46.65949000,1978.0000
7.915660000,46.65943000,1979.0000
7.915620000,46.65938000,1978.0000
7.915570000,46.65932000,1979.0000
7.915530000,46.65926000,1978.0000
7.915470000,46.65923000,1979.0000
7.915400000,46.65919000,1980.0000
7.915340000,46.65914000,1980.0000
7.915270000,46.65904000,1977.0000
7.915150000,46.65892000,1973.0000
7.915030000,46.65881000,1971.0000
7.914940000,46.65874000,1973.0000
7.914880000,46.65869000,1975.0000
7.914850000,46.65864000,1976.0000
7.914820000,46.65856000,1975.0000
7.914790000,46.65851000,1975.0000
7.914710000,46.65846000,1977.0000
7.914610000,46.65844000,1983.0000
7.914540000,46.65844000,1988.0000
7.914460000,46.65845000,1995.0000
7.914340000,46.65841000,2001.0000
7.914270000,46.65840000,2006.0000
7.914110000,46.65837000,2014.0000
7.914000000,46.65835000,2013.0000
7.913920000,46.65833000,2012.0000
7.913840000,46.65831000,2009.0000
7.913770000,46.65830000,2007.0000
7.913720000,46.65830000,2005.0000
7.913660000,46.65831000,2005.0000
7.913580000,46.65834000,2004.0000
7.913520000,46.65836000,2003.0000
7.913460000,46.65840000,2003.0000
7.913420000,46.65843000,2004.0000
7.913380000,46.65847000,2006.0000
7.913240000,46.65855000,2009.0000
7.913190000,46.65856000,2009.0000
7.913130000,46.65859000,2010.0000
7.913050000,46.65861000,2009.0000
7.912940000,46.65866000,2009.0000
7.912840000,46.65870000,2008.0000
7.912760000,46.65874000,2006.0000
7.912700000,46.65875000,2003.0000
7.912630000,46.65876000,1999.0000
7.912590000,46.65877000,1997.0000
7.912560000,46.65877000,1996.0000
7.912490000,46.65880000,1993.0000
7.912450000,46.65883000,1992.0000
7.912350000,46.65885000,1990.0000
7.912310000,46.65886000,1989.0000
7.912240000,46.65887000,1987.0000
7.912230000,46.65888000,1986.0000
7.912180000,46.65890000,1984.0000
7.912130000,46.65891000,1982.0000
7.912030000,46.65894000,1977.0000
7.912000000,46.65895000,1975.0000
7.911960000,46.65894000,1974.0000
7.911910000,46.65892000,1974.0000
7.911830000,46.65889000,1974.0000
7.911740000,46.65888000,1973.0000
7.911660000,46.65886000,1973.0000
7.911580000,46.65885000,1972.0000
7.911540000,46.65885000,1972.0000
7.911490000,46.65885000,1972.0000
7.911430000,46.65884000,1972.0000
7.911340000,46.65883000,1971.0000
7.911250000,46.65880000,1970.0000
7.911180000,46.65879000,1969.0000
7.911120000,46.65878000,1969.0000
7.911040000,46.65874000,1964.0000
7.910950000,46.65870000,1962.0000
7.910840000,46.65868000,1960.0000
7.910780000,46.65866000,1962.0000
7.910740000,46.65865000,1963.0000
7.910650000,46.65858000,1967.0000
7.910500000,46.65850000,1967.0000
7.910380000,46.65843000,1970.0000
7.910260000,46.65835000,1975.0000
7.910200000,46.65833000,1974.0000
7.910150000,46.65827000,1974.0000
7.910090000,46.65822000,1975.0000
7.910010000,46.65816000,1978.0000
7.909960000,46.65808000,1983.0000
7.909880000,46.65798000,1983.0000
7.909840000,46.65791000,1985.0000
7.909800000,46.65785000,1988.0000
7.909790000,46.65783000,1989.0000
7.909740000,46.65785000,1988.0000
7.909740000,46.65788000,1985.0000
7.909710000,46.65787000,1986.0000
7.909680000,46.65786000,1986.0000
7.909680000,46.65783000,1989.0000
7.909640000,46.65779000,1991.0000
7.909580000,46.65774000,1993.0000
7.909520000,46.65770000,1995.0000
7.909480000,46.65764000,1998.0000
7.909410000,46.65757000,2002.0000
7.909330000,46.65749000,2007.0000
7.909270000,46.65744000,2008.0000
7.909200000,46.65738000,2010.0000
7.909150000,46.65735000,2011.0000
7.909150000,46.65740000,2010.0000
7.909140000,46.65746000,2008.0000
7.909050000,46.65742000,2010.0000
7.908950000,46.65736000,2013.0000
7.908890000,46.65732000,2016.0000
7.908860000,46.65729000,2018.0000
7.908800000,46.65726000,2021.0000
7.908760000,46.65722000,2025.0000
7.908740000,46.65720000,2025.0000
7.908700000,46.65720000,2026.0000
7.908700000,46.65723000,2025.0000
7.908720000,46.65728000,2021.0000
7.908720000,46.65730000,2020.0000
7.908700000,46.65732000,2019.0000
7.908620000,46.65727000,2024.0000
7.908490000,46.65718000,2025.0000
7.908440000,46.65715000,2025.0000
7.908420000,46.65713000,2024.0000
7.908350000,46.65709000,2024.0000
7.908260000,46.65704000,2023.0000
7.908160000,46.65697000,2026.0000
7.908070000,46.65690000,2032.0000
7.908060000,46.65690000,2033.0000
7.908020000,46.65686000,2035.0000
7.907960000,46.65684000,2034.0000
7.907930000,46.65682000,2035.0000
7.907920000,46.65679000,2037.0000
7.907880000,46.65673000,2040.0000
7.907820000,46.65666000,2043.0000
7.907760000,46.65660000,2043.0000
7.907730000,46.65655000,2044.0000
7.907720000,46.65652000,2045.0000
7.907700000,46.65649000,2046.0000
7.907640000,46.65644000,2047.0000
7.907600000,46.65642000,2047.0000
7.907590000,46.65640000,2048.0000
7.907540000,46.65638000,2048.0000
7.907500000,46.65637000,2047.0000
7.907450000,46.65636000,2047.0000
7.907390000,46.65630000,2048.0000
7.907350000,46.65628000,2048.0000
7.907290000,46.65628000,2047.0000
7.907250000,46.65626000,2047.0000
7.907190000,46.65622000,2048.0000
7.907160000,46.65620000,2048.0000
7.907110000,46.65617000,2049.0000
7.907060000,46.65615000,2049.0000
7.907020000,46.65611000,2050.0000
7.906980000,46.65608000,2050.0000
7.906890000,46.65604000,2049.0000
7.906830000,46.65601000,2047.0000
7.906830000,46.65598000,2048.0000
7.906870000,46.65595000,2049.0000
7.906910000,46.65590000,2051.0000
7.906950000,46.65584000,2053.0000
7.906980000,46.65581000,2052.0000
7.907040000,46.65578000,2052.0000
7.907050000,46.65576000,2052.0000
7.907000000,46.65573000,2050.0000
7.906970000,46.65570000,2048.0000
7.906890000,46.65569000,2046.0000
7.906890000,46.65564000,2044.0000
7.906920000,46.65562000,2044.0000
7.906940000,46.65560000,2044.0000
7.906980000,46.65558000,2044.0000
7.907050000,46.65558000,2046.0000
7.907100000,46.65557000,2046.0000
7.907140000,46.65556000,2047.0000
7.907130000,46.65554000,2046.0000
7.907080000,46.65554000,2045.0000
7.906980000,46.65551000,2041.0000
7.906940000,46.65549000,2039.0000
7.907010000,46.65546000,2039.0000
7.907100000,46.65544000,2040.0000
7.907160000,46.65541000,2040.0000
7.907270000,46.65539000,2042.0000
7.907320000,46.65538000,2042.0000
7.907330000,46.65536000,2041.0000
7.907320000,46.65535000,2041.0000
7.907280000,46.65535000,2040.0000
7.907190000,46.65532000,2037.0000
7.907030000,46.65528000,2031.0000
7.906860000,46.65523000,2024.0000
7.906800000,46.65521000,2022.0000
7.906850000,46.65519000,2022.0000
7.906930000,46.65517000,2022.0000
7.906990000,46.65516000,2023.0000
7.907050000,46.65517000,2025.0000
7.907100000,46.65517000,2026.0000
7.907180000,46.65517000,2028.0000
7.907140000,46.65513000,2024.0000
7.907030000,46.65509000,2019.0000
7.906890000,46.65505000,2014.0000
7.906830000,46.65502000,2011.0000
7.906770000,46.65500000,2008.0000
7.906860000,46.65500000,2010.0000
7.906950000,46.65499000,2012.0000
7.907050000,46.65497000,2013.0000
7.907140000,46.65495000,2013.0000
7.907210000,46.65493000,2014.0000
7.907260000,46.65490000,2013.0000
7.907300000,46.65485000,2012.0000
7.907370000,46.65476000,2010.0000
7.907440000,46.65464000,2007.0000
7.907510000,46.65455000,2005.0000
7.907550000,46.65451000,2005.0000
7.907590000,46.65448000,2006.0000
7.907660000,46.65441000,2006.0000
7.907740000,46.65435000,2007.0000
7.907780000,46.65429000,2006.0000
7.907800000,46.65423000,2004.0000
7.907820000,46.65417000,2002.0000
7.907870000,46.65413000,2003.0000
7.907890000,46.65410000,2002.0000
7.907940000,46.65406000,2003.0000
7.907970000,46.65402000,2003.0000
7.908020000,46.65399000,2005.0000
7.908030000,46.65397000,2004.0000
7.908060000,46.65394000,2004.0000
7.908100000,46.65392000,2004.0000
7.908130000,46.65389000,2004.0000
7.908160000,46.65385000,2004.0000
7.908230000,46.65379000,2004.0000
7.908390000,46.65368000,2005.0000
7.908520000,46.65356000,2005.0000
7.908610000,46.65349000,2008.0000
7.908650000,46.65342000,2009.0000
7.908660000,46.65335000,2009.0000
7.908640000,46.65329000,2007.0000
7.908600000,46.65323000,2003.0000
7.908520000,46.65315000,1998.0000
7.908460000,46.65310000,1995.0000
7.908430000,46.65307000,1993.0000
7.908420000,46.65304000,1993.0000
7.908430000,46.65297000,1992.0000
7.908460000,46.65290000,1992.0000
7.908490000,46.65275000,1992.0000
7.908510000,46.65268000,1993.0000
7.908560000,46.65262000,1995.0000
7.908630000,46.65256000,1998.0000
7.908740000,46.65247000,2004.0000
7.908890000,46.65237000,2009.0000
7.908960000,46.65231000,2009.0000
7.909000000,46.65226000,2008.0000
7.909070000,46.65215000,2005.0000
7.909140000,46.65204000,2003.0000
7.909180000,46.65199000,2001.0000
7.909230000,46.65196000,2001.0000
7.909370000,46.65191000,2000.0000
7.909470000,46.65185000,1998.0000
7.909570000,46.65182000,1997.0000
7.909670000,46.65179000,1995.0000
7.909720000,46.65178000,1994.0000
7.909700000,46.65176000,1993.0000
7.909690000,46.65175000,1992.0000
7.909670000,46.65173000,1991.0000
7.909630000,46.65170000,1990.0000
7.909540000,46.65166000,1990.0000
7.909470000,46.65162000,1991.0000
7.909380000,46.65160000,1991.0000
7.909300000,46.65159000,1990.0000
7.909190000,46.65160000,1990.0000
7.909100000,46.65163000,1989.0000
7.909080000,46.65162000,1988.0000
7.909060000,46.65160000,1987.0000
7.909060000,46.65155000,1985.0000
7.909060000,46.65150000,1984.0000
7.909060000,46.65145000,1982.0000
7.909010000,46.65146000,1981.0000
7.908970000,46.65148000,1981.0000
7.908950000,46.65148000,1980.0000
7.908960000,46.65143000,1979.0000
7.908980000,46.65138000,1978.0000
7.909030000,46.65129000,1977.0000
7.909050000,46.65125000,1977.0000
7.909030000,46.65124000,1976.0000
7.908960000,46.65124000,1975.0000
7.908900000,46.65122000,1973.0000
7.908930000,46.65120000,1973.0000
7.909080000,46.65117000,1976.0000
7.909230000,46.65112000,1978.0000
7.909320000,46.65109000,1977.0000
7.909580000,46.65105000,1971.0000
7.909650000,46.65105000,1968.0000
7.909700000,46.65106000,1967.0000
7.909740000,46.65108000,1966.0000
7.909780000,46.65111000,1966.0000
7.909820000,46.65116000,1967.0000
7.909900000,46.65118000,1965.0000
7.909950000,46.65120000,1965.0000
7.910000000,46.65125000,1965.0000
7.910080000,46.65131000,1969.0000
7.910140000,46.65135000,1971.0000
7.910200000,46.65139000,1974.0000
7.910240000,46.65140000,1975.0000
7.910280000,46.65142000,1976.0000
7.910380000,46.65145000,1975.0000
7.910460000,46.65148000,1974.0000
7.910520000,46.65152000,1975.0000
7.910580000,46.65160000,1977.0000
7.910620000,46.65166000,1979.0000
7.910650000,46.65172000,1980.0000
7.910680000,46.65178000,1982.0000
7.910720000,46.65184000,1984.0000</coordinates>
        </LineString>
      </MultiGeometry>
    </Placemark>
  </Document>
</kml>

